     3.02           N: GNSS NAV DATA    M: Mixed            RINEX VERSION / TYPE
RTKCONV 2.4.3 p01                       20210611 073941 UTC PGM / RUN BY / DATE 
log: F:\OnlyINS\0609\060906                                 COMMENT             
format: u-blox                                              COMMENT             
GPSA   6.5193E-09  2.2352E-08 -5.9605E-08 -1.1921E-07       IONOSPHERIC CORR    
GPSB   8.6016E+04  9.8304E+04 -6.5536E+04 -5.2429E+05       IONOSPHERIC CORR    
GAL    0.0000E+00  0.0000E+00  0.0000E+00  0.0000E+00       IONOSPHERIC CORR    
QZSA   8.3819E-09 -1.4901E-08 -4.1723E-07  3.5763E-07       IONOSPHERIC CORR    
QZSB   1.0035E+05 -6.5536E+04 -2.8180E+06  8.3231E+06       IONOSPHERIC CORR    
GPUT  2.7939677238E-09-3.552713679E-15 503808 2161          TIME SYSTEM CORR    
GAUT  0.0000000000E+00 0.000000000E+00      0    0          TIME SYSTEM CORR    
QZUT  0.0000000000E+00 0.000000000E+00-520192 2161          TIME SYSTEM CORR    
BDUT  0.0000000000E+00 0.000000000E+00      0    0          TIME SYSTEM CORR    
    18                                                      LEAP SECONDS        
                                                            END OF HEADER       
C27 2021  6  9  6  0  0  .545306713320E-03  .610977934912E-11  .000000000000E+00
      .100000000000E+01 -.114656250000E+03  .367158150754E-08  .320295949521E+00
     -.552320852876E-05  .754592823796E-03  .175647437572E-05  .528262025642E+04
      .280800000000E+06 -.973232090473E-07  .193394765245E+01  .465661287308E-09
      .966338020086E+00  .330156250000E+03  .109752908874E+01 -.700172022118E-08
     -.284297556420E-09  .000000000000E+00  .805000000000E+03  .100000000000E+01
      .200000000000E+01  .000000000000E+00 -.450000000000E-08 -.450000000000E-08
      .280800000000E+06  .100000000000E+01
C14 2021  6  9  6  0  0  .920700374991E-03 -.398836519366E-10  .000000000000E+00
      .100000000000E+01  .288906250000E+02  .404516849750E-08  .192725666892E+01
      .120699405670E-05  .147908215877E-02  .680377706885E-05  .528261107635E+04
      .280800000000E+06  .442378222942E-07 -.227540296527E+01  .274740159512E-07
      .963316270629E+00  .224937500000E+03 -.602850518778E+00 -.677099632489E-08
      .592524681031E-09  .000000000000E+00  .805000000000E+03  .100000000000E+01
      .200000000000E+01  .000000000000E+00  .600000000000E-08  .120000000000E-08
      .280800000000E+06  .000000000000E+00
C 7 2021  6  9  6  0  0  .930678797886E-04 -.403233002544E-10  .000000000000E+00
      .100000000000E+01  .788328125000E+03  .130041131021E-08 -.743641599658E+00
      .254740007222E-04  .847966573201E-02 -.349525362253E-05  .649379670715E+04
      .280800000000E+06  .142026692629E-06  .688320072437E+00 -.216532498598E-06
      .888357865294E+00  .325625000000E+03 -.254122551725E+01 -.245510226486E-08
      .336799743347E-09  .000000000000E+00  .805000000000E+03  .100000000000E+01
      .200000000000E+01  .000000000000E+00  .142000000000E-07  .300000000000E-09
      .280800000000E+06  .000000000000E+00
C10 2021  6  9  6  0  0 -.320940744132E-04  .458832971617E-11  .000000000000E+00
      .000000000000E+00  .816343750000E+03  .118933525487E-08 -.115882243043E+01
      .264220871031E-04  .744400499389E-02 -.173691660166E-05  .649297239494E+04
      .280800000000E+06  .257976353168E-06  .681664128721E+00 -.292900949717E-06
      .890154224828E+00  .287093750000E+03 -.255362631832E+01 -.229152402260E-08
      .351086052715E-09  .000000000000E+00  .805000000000E+03  .100000000000E+01
      .200000000000E+01  .000000000000E+00  .560000000000E-08  .250000000000E-08
      .280800000000E+06  .000000000000E+00
C 8 2021  6  9  6  0  0 -.893242657185E-03 -.218136619878E-11  .000000000000E+00
      .100000000000E+01 -.616781250000E+03 -.131791203918E-09 -.272884444492E+01
     -.201910734177E-04  .514686363749E-02  .256863422692E-04  .649383860970E+04
      .280800000000E+06 -.375788658857E-06  .285191419262E+01  .791624188423E-07
      .104386406316E+01 -.523656250000E+03 -.273383005072E+01 -.127005290280E-08
      .131791203918E-09  .000000000000E+00  .805000000000E+03  .100000000000E+01
      .200000000000E+01  .000000000000E+00  .106000000000E-07 -.120000000000E-08
      .280800000000E+06  .000000000000E+00
C13 2021  6  9  6  0  0  .292952288873E-03  .141389122632E-10  .000000000000E+00
      .100000000000E+01 -.718140625000E+03  .389301930274E-10  .308019935071E+01
     -.229328870773E-04  .372004183009E-02  .242409296334E-04  .649349299431E+04
      .280800000000E+06 -.576954334974E-06  .282992984740E+01  .995583832264E-06
      .100516951131E+01 -.492046875000E+03 -.259540121242E+01 -.110933192241E-08
     -.210723063176E-10  .000000000000E+00  .805000000000E+03  .100000000000E+01
      .200000000000E+01  .000000000000E+00 -.103000000000E-07  .220000000000E-08
      .280800000000E+06  .000000000000E+00
E11 2021  6  9  5 50  0  .587427732535E-02 -.490842921863E-10  .000000000000E+00
      .830000000000E+02 -.196437500000E+03  .231473927532E-08 -.169960668207E+00
     -.903010368347E-05  .501008238643E-03  .678747892380E-05  .544061649132E+04
      .280200000000E+06 -.447034835815E-07  .239065593351E+01  .800937414169E-07
      .992010500282E+00  .208718750000E+03  .815708377711E+00 -.531343561164E-08
     -.234652631367E-09  .513000000000E+03  .216100000000E+04  .000000000000E+00
      .312000000000E+01  .000000000000E+00 -.135041773319E-07 -.144354999065E-07
      .280886000000E+06  .000000000000E+00
E12 2021  6  9  5 50  0  .516923639225E-02 -.189572801901E-10  .000000000000E+00
      .830000000000E+02 -.187718750000E+03  .240152860473E-08  .107176546583E+01
     -.875070691109E-05  .414831447415E-03  .665709376335E-05  .544061296082E+04
      .280200000000E+06 -.745058059692E-08  .239064797816E+01 -.577419996262E-07
      .992024003016E+00  .213531250000E+03  .381722077354E+00 -.533772233756E-08
     -.286440502825E-09  .513000000000E+03  .216100000000E+04  .000000000000E+00
      .312000000000E+01  .000000000000E+00 -.107102096081E-07 -.102445483208E-07
      .280886000000E+06  .000000000000E+00
E31 2021  6  9  5 50  0 -.482018513139E-03 -.468958205602E-12  .000000000000E+00
      .830000000000E+02  .187031250000E+03  .270225541693E-08 -.993156361589E+00
      .873208045959E-05  .211135833524E-03  .800751149654E-05  .544062284088E+04
      .280200000000E+06  .279396772385E-07  .304024077035E+00 -.242143869400E-07
      .977841069291E+00  .172812500000E+03 -.178171258476E+01 -.537058084911E-08
     -.235724104569E-10  .513000000000E+03  .216100000000E+04  .000000000000E+00
      .312000000000E+01  .000000000000E+00  .395812094212E-08  .419095158577E-08
      .280886000000E+06  .000000000000E+00
E19 2021  6  9  5 50  0  .297708145808E-03  .937916411203E-11  .000000000000E+00
      .830000000000E+02  .818750000000E+01  .373372695329E-08  .174241788101E+01
      .344589352608E-06  .326869194396E-03  .400841236115E-05  .544060371780E+04
      .280200000000E+06 -.186264514923E-07 -.179076306644E+01 -.447034835815E-07
      .960090107630E+00  .259500000000E+03 -.153813230216E+01 -.573773899986E-08
      .173578658819E-09  .513000000000E+03  .216100000000E+04  .000000000000E+00
      .312000000000E+01  .000000000000E+00 -.349245965481E-08 -.372529029846E-08
      .280886000000E+06  .000000000000E+00
E 4 2021  6  9  5 50  0 -.788555829786E-03 -.808597633295E-11  .000000000000E+00
      .830000000000E+02  .371875000000E+01  .382230207137E-08  .701196760757E+00
      .296160578728E-06  .342518091202E-03  .390596687794E-05  .544060674477E+04
      .280200000000E+06 -.558793544769E-08 -.179116523286E+01 -.372529029846E-08
      .954408098700E+00  .255718750000E+03 -.136254873569E+01 -.575988277938E-08
      .197508227010E-09  .513000000000E+03  .216100000000E+04  .000000000000E+00
      .312000000000E+01  .000000000000E+00 -.302679836750E-08 -.325962901115E-08
      .280886000000E+06  .000000000000E+00
E25 2021  6  9  5 50  0 -.536371080671E-03 -.122213350551E-11  .000000000000E+00
      .830000000000E+02  .205343750000E+03  .267618290233E-08 -.268392063721E+01
      .938959419727E-05  .162382028066E-03  .935420393944E-05  .544061920738E+04
      .280200000000E+06  .745058059692E-08  .304065457135E+00  .391155481339E-07
      .977871713036E+00  .147656250000E+03 -.165946128853E+01 -.532772192100E-08
      .178578867098E-10  .513000000000E+03  .216100000000E+04  .000000000000E+00
      .312000000000E+01  .000000000000E+00  .372529029846E-08  .419095158577E-08
      .280886000000E+06  .000000000000E+00
E11 2021  6  9  6  0  0  .587424793048E-02 -.490842921863E-10  .000000000000E+00
      .840000000000E+02 -.195656250000E+03  .230902475158E-08 -.957485866215E-01
     -.898912549019E-05  .501175876707E-03  .685453414917E-05  .544061686707E+04
      .280800000000E+06 -.651925802231E-07  .239065281603E+01  .614672899246E-07
      .992010447617E+00  .207437500000E+03  .815881141022E+00 -.530807824562E-08
     -.250724729406E-09  .513000000000E+03  .216100000000E+04  .000000000000E+00
      .312000000000E+01  .000000000000E+00 -.135041773319E-07 -.144354999065E-07
      .281486000000E+06  .000000000000E+00
E12 2021  6  9  6  0  0  .516922509996E-02 -.189572801901E-10  .000000000000E+00
      .840000000000E+02 -.185375000000E+03  .241581491410E-08  .114695813262E+01
     -.865943729877E-05  .414876849391E-03  .660307705402E-05  .544061229134E+04
      .280800000000E+06  .558793544769E-08  .239064483728E+01 -.577419996262E-07
      .992023845021E+00  .214906250000E+03  .380914062348E+00 -.534200823037E-08
     -.292869342041E-09  .513000000000E+03  .216100000000E+04  .000000000000E+00
      .312000000000E+01  .000000000000E+00 -.107102096081E-07 -.102445483208E-07
      .281486000000E+06  .000000000000E+00
